IRIDIUM 26              
1 24903U 97043A   25358.53400590  .00000333  00000+0  10497-3 0  9992
2 24903  86.3950  30.6048 0002256  97.9943 262.1510 14.37336056484087
IRIDIUM 22              
1 24907U 97043E   25358.55256818  .00000332  00000+0  10713-3 0  9990
2 24907  86.3952  34.3004 0002337  93.4926 266.6538 14.36129411484092
DUMMY MASS 1            
1 24925U 97048A   25358.64797229  .00000405  00000+0  41837-4 0  9994
2 24925  86.3333  47.1951 0006624 170.0608 190.0750 14.87192503533437
DUMMY MASS 2            
1 24926U 97048B   25358.64194154  .00000401  00000+0  41730-4 0  9991
2 24926  86.3333  48.8409 0006842 184.1449 175.9720 14.86942998533209
IRIDIUM 29              
1 24944U 97051A   25358.71518716  .00000346  00000+0  11102-3 0  9994
2 24944  86.3944  63.9150 0002245  90.5659 269.5795 14.36671509480625
IRIDIUM 33              
1 24946U 97051C   25358.69981363  .00000334  00000+0  11018-3 0  9998
2 24946  86.3857  63.2009 0008444 161.6757 198.4746 14.35045330480062
IRIDIUM 28              
1 24948U 97051E   25358.70791323  .00000369  00000+0  11654-3 0  9991
2 24948  86.3949  61.3249 0002333 108.2074 251.9377 14.37571812481215
IRIDIUM 36              
1 24967U 97056C   25358.78075852  .00000436  00000+0  13837-3 0  9997
2 24967  86.3963  92.9223 0002348  99.7271 260.4192 14.37794302479604
